{"type":"FeatureCollection","features":[{"type":"Feature","properties":{"source":"OpenStreetMap relation 8178153","name":"Sable Island","license":"ODbL"},"geometry":{"coordinates":[[[-59.7954339,44.2158789],[-59.7928902,44.2173253],[-59.7744732,44.2254616],[-59.7502166,44.2338585],[-59.7321078,44.2390248],[-59.6901977,44.2469533],[-59.6470762,44.2500903],[-59.6077156,44.2487144],[-59.571517,44.243842],[-59.5562247,44.2406776],[-59.5152459,44.2286044],[-59.4845044,44.2156261],[-59.4473645,44.1938837],[-59.4159898,44.1678694],[-59.4058814,44.1569135],[-59.3913094,44.1383598],[-59.3740492,44.1062351],[-59.3646698,44.0721839],[-59.3634562,44.0580015],[-59.364036,44.0323316],[-59.3713892,44.0009786],[-59.3855231,43.9708617],[-59.3953159,43.9570577],[-59.4064753,43.9422796],[-59.4393472,43.9117765],[-59.4800776,43.8848347],[-59.5111435,43.8685078],[-59.5346509,43.8542815],[-59.5832624,43.8161073],[-59.5984675,43.8060174],[-59.6187405,43.7945801],[-59.6456642,43.7812222],[-59.6899858,43.7634368],[-59.7394076,43.748407],[-59.7594717,43.7434509],[-59.8027037,43.7352142],[-59.8290034,43.7313151],[-59.86733,43.7273684],[-59.9011423,43.7254044],[-59.9727883,43.7252473],[-60.0253729,43.7262962],[-60.072052,43.7303797],[-60.1189568,43.7376134],[-60.1765204,43.7506446],[-60.2198005,43.7637208],[-60.2649924,43.7810764],[-60.287433,43.7911023],[-60.3309558,43.8152435],[-60.3528219,43.8292653],[-60.3735224,43.8450639],[-60.4020813,43.8733218],[-60.4251448,43.9079425],[-60.438643,43.9451121],[-60.4420607,43.9834608],[-60.432761,44.0289609],[-60.4149207,44.0637994],[-60.3884275,44.095652],[-60.3541869,44.123414],[-60.3133778,44.1461208],[-60.2674123,44.1629825],[-60.2178869,44.1734116],[-60.1663388,44.1770449],[-60.1187634,44.1742415],[-60.0725675,44.1655986],[-60.0291276,44.1513734],[-59.9953185,44.1356787],[-59.931257,44.1368052],[-59.9044266,44.1557571],[-59.8723087,44.1749141],[-59.8092305,44.2095677],[-59.7954339,44.2158789]]],"type":"Polygon"}}]}